{"type":"FeatureCollection","name":"wiltshire-county","crs":{"type":"name","properties":{"name":"urn:ogc:def:crs:OGC:1.3:CRS84"}},"features":[{"type":"Feature","properties":{"name":"Wiltshire","name_note":"Ceremonial county of Wiltshire (Wiltshire UA + Swindon UA)","includes_swindon":true,"source":"ONS Counties and Unitary Authorities (December 2024) Boundaries UK BGC \u2014 Wiltshire (E06000054) + Swindon (E06000030) merged","source_codes":"E06000054;E06000030","licence":"Open Government Licence v3.0 (ONS / OS OpenData)","attribution":"Contains OS data (c) Crown copyright and database right; Contains National Statistics data (c) Crown copyright and database right","simplified":"shapely.simplify(0.0015, preserve_topology=True) from ONS BGC (~200 m)"},"geometry":{"type":"Polygon","coordinates":[[[-1.81115199597698,51.6974794470314],[-1.794438892386,51.6767715594123],[-1.79543727110128,51.6727936603963],[-1.78860021502991,51.6670069386902],[-1.77695411621138,51.6693724613653],[-1.77027675703793,51.6679689723683],[-1.76640616463406,51.6627077018812],[-1.75382175989693,51.6621732050119],[-1.73931300126797,51.6674195130079],[-1.727488092936,51.6672085668],[-1.71098922041805,51.6717911945202],[-1.70957230634509,51.6816874353233],[-1.69897003782936,51.6876683702085],[-1.69661143422916,51.692099700945],[-1.68313461199299,51.6901263768097],[-1.69105677388985,51.687285884683],[-1.69644358159275,51.682147591169],[-1.69477700201183,51.6785991991136],[-1.69874004648955,51.6764544993156],[-1.70021189280661,51.670883073928],[-1.69409440054588,51.6687955237962],[-1.69061583148848,51.6637561372969],[-1.68846948565971,51.6568184671314],[-1.69188577119606,51.6521617504399],[-1.68622669137739,51.6523482203432],[-1.67562763866969,51.6414153756731],[-1.66325374095565,51.6398897512764],[-1.65992419135007,51.6350159242163],[-1.67372908103647,51.622836342486],[-1.66698974337017,51.6162194507483],[-1.67491929340816,51.6117314291927],[-1.68108234930918,51.6136560309587],[-1.68250937306521,51.6093957114376],[-1.69059536080077,51.6054112334679],[-1.6908750338908,51.601864805965],[-1.68732071556081,51.6001191439737],[-1.68791579997948,51.5954541209237],[-1.68475642339567,51.5903268866521],[-1.69111065938545,51.5835237268059],[-1.68400935507576,51.572804616015],[-1.67654765821201,51.5693909366413],[-1.65504259728401,51.5764933599863],[-1.64768626504516,51.5719347085607],[-1.63413177355139,51.553265517361],[-1.61372143593795,51.5365110195415],[-1.60282488305727,51.5183097246359],[-1.59404224673741,51.5197791157679],[-1.58909953857075,51.5244906341199],[-1.58469504578326,51.5249220601573],[-1.58806442469911,51.5131485932431],[-1.58582906593759,51.5021135957399],[-1.5821952316237,51.5001290853062],[-1.58222195262179,51.4940291809756],[-1.57041424799549,51.4862956080164],[-1.56683051540033,51.4769303233408],[-1.56158295445419,51.4763785698125],[-1.55952593937496,51.4697386043729],[-1.55094100445813,51.4654843220126],[-1.54839018913458,51.4606558348025],[-1.52907203495841,51.4555077462164],[-1.52402343880987,51.4474724278157],[-1.52405868408235,51.4409321782653],[-1.53202897978539,51.4295018557357],[-1.52540242465664,51.4248589370571],[-1.52663254004296,51.4239161751968],[-1.53954583615145,51.4261297683427],[-1.55307463016939,51.4212475218085],[-1.56511865145832,51.422043433161],[-1.57096980348612,51.4152945956558],[-1.56345703122758,51.4132531003447],[-1.56222439427088,51.4081734511714],[-1.55292234102159,51.4100374211089],[-1.55559663765941,51.3955386531602],[-1.54899838712939,51.3947316280628],[-1.54644494111376,51.3904905121358],[-1.53763966202054,51.3883106821983],[-1.5382754439315,51.3854878701875],[-1.52886360352529,51.3813960076127],[-1.52758009975913,51.3787769165375],[-1.51690141979573,51.3787711449644],[-1.51352770508985,51.3720509802695],[-1.5025014235801,51.3688069988344],[-1.49537262165059,51.3696578977458],[-1.50063304963128,51.3563211266337],[-1.48561782031052,51.3476506886645],[-1.49737036101329,51.3333408995748],[-1.49828689474575,51.3293617167329],[-1.51622806154012,51.3393521212024],[-1.52750793808987,51.3384441165574],[-1.5271984051527,51.3315227311942],[-1.53198432034265,51.3279815175202],[-1.53356185391502,51.3162235794285],[-1.52775751374727,51.3128895620923],[-1.52522501856312,51.3070668975567],[-1.52799920772543,51.2998286107947],[-1.51942047349176,51.2960815235808],[-1.52421757725432,51.2931632256437],[-1.5227771840447,51.2870633235997],[-1.53445641522733,51.2871210648081],[-1.54256597225392,51.2813267148508],[-1.535903157707,51.277314473257],[-1.54059897066636,51.2608311895023],[-1.53055011205573,51.2626445473252],[-1.5298179468057,51.2608018456309],[-1.53602175216297,51.2485550446692],[-1.54599458392582,51.2452905286963],[-1.55116236490341,51.2488065330237],[-1.57757201593558,51.2555795581159],[-1.60018632725542,51.2535243103417],[-1.60073226446486,51.2507161741365],[-1.60759078945477,51.2527924061638],[-1.61039319584532,51.2429796318858],[-1.61941475035327,51.2412049882368],[-1.63362097701599,51.2175905577841],[-1.65349635758962,51.2204676453189],[-1.68978806224739,51.2147685862798],[-1.69114636822514,51.2073347554221],[-1.69409695143106,51.2040432388922],[-1.66882042147437,51.1907592185769],[-1.66929966944621,51.1817368665774],[-1.67227119754693,51.1785463705247],[-1.65404004725731,51.1562528472999],[-1.66297542061049,51.1271919933478],[-1.64065952476035,51.1254125340399],[-1.6263412733448,51.1173368726114],[-1.63079543039735,51.1128864833621],[-1.62710192526472,51.1027573341416],[-1.63731479886634,51.092202331828],[-1.62780726975054,51.0781558152831],[-1.62783192208653,51.0688324134602],[-1.63497677895496,51.0408468091911],[-1.63237574994688,51.032779708019],[-1.61945709662409,51.0330594495547],[-1.61144648100765,51.0272824253963],[-1.59939671455144,51.0237293750411],[-1.60562660154548,51.0200241157757],[-1.60531807272462,51.0170391185279],[-1.59757112603975,51.0105975054398],[-1.59757614725212,51.0080271227843],[-1.60523969750247,51.0070400752879],[-1.60910357724982,51.0098542887939],[-1.61040638407828,51.006849136606],[-1.6149102782794,51.0066386133966],[-1.60965404429976,51.0059233736747],[-1.60607793189018,51.0018978050281],[-1.61723097131332,51.0041820413101],[-1.62880469880737,50.9990945293125],[-1.62521299074386,50.9903307344927],[-1.61895853606211,50.9874001051109],[-1.61973084457042,50.9830349737378],[-1.61442566755805,50.9794812137995],[-1.60292975190204,50.9785041787189],[-1.61223444374356,50.9712788311629],[-1.6233992105681,50.954637271241],[-1.63496498191182,50.9592422023824],[-1.64637611512953,50.9494654489152],[-1.66165999760679,50.9452778916326],[-1.68929909408825,50.9546374578365],[-1.71957103083064,50.9767862616202],[-1.75440191299908,50.9778920948413],[-1.75432000000421,50.9804475451645],[-1.80031396441254,50.9913947995553],[-1.80758352883346,50.9920455127531],[-1.81542176154033,50.9859226497394],[-1.82741235465669,50.9972732303582],[-1.83581730052681,51.0094733410558],[-1.85367968480751,51.0044694617494],[-1.87391116606953,50.9845006387859],[-1.87448162937032,51.0063305721162],[-1.88674132171074,50.9995277353679],[-1.92787590068259,50.9976972344344],[-1.94993597428249,50.9823105862036],[-1.95683008078171,50.9898002876488],[-1.96533372970933,50.9920295090997],[-1.97737877442283,50.9857553059853],[-1.98526594366025,50.9847136656343],[-1.99383003479632,50.9757710651012],[-2.00990800858108,50.9752389017567],[-2.01742677097208,50.9721611442136],[-2.03720818978598,50.9719698379577],[-2.04122533417257,50.968067688471],[-2.05832769273258,50.9636432468432],[-2.05860016507045,50.9606315044673],[-2.06237255011494,50.9598867778016],[-2.06831287946984,50.951194013835],[-2.0828636408361,50.9513383638335],[-2.08526986155221,50.9492449636613],[-2.09414534539027,50.9491347331766],[-2.10179195110563,50.9449855115398],[-2.11052117612026,50.9554887150899],[-2.12067094650373,50.9615394737647],[-2.12065165846279,50.9694078085271],[-2.12315689150962,50.9694682014224],[-2.11976435895004,50.9781906477164],[-2.13168971499485,50.9797702704663],[-2.14814724571989,50.9862779616736],[-2.17257990630718,51.0011004609978],[-2.17814287662572,51.00832394434],[-2.17639974127222,51.0128395356306],[-2.18860363886937,51.0185315491552],[-2.18915776359103,51.030677222113],[-2.19331116982019,51.0377514206219],[-2.20150040741061,51.0432430622054],[-2.20541553869097,51.0427856157034],[-2.21801065382418,51.0551843238202],[-2.22585803636724,51.0575714770083],[-2.2401934775956,51.0699241923208],[-2.24776312299275,51.0721897802142],[-2.26859581115027,51.0687257135046],[-2.28310577602687,51.0751633454217],[-2.29868124048164,51.0784865655427],[-2.32054011725584,51.0809922199753],[-2.32712968724146,51.0797646144671],[-2.32914039662606,51.0852585336848],[-2.34705123241377,51.0882362557167],[-2.35440741527356,51.0964483331067],[-2.36086958335645,51.0990175000391],[-2.36345167494137,51.104304028717],[-2.3607774994909,51.1088381187084],[-2.36288304653754,51.1157753515293],[-2.36558992950093,51.1149899554489],[-2.3645276284756,51.1188788391385],[-2.34453924740452,51.1246781592988],[-2.34318642064104,51.1274409417615],[-2.34630465392582,51.1305106822478],[-2.34586192692829,51.1333624818332],[-2.33216929828985,51.1379832065353],[-2.33228701782695,51.1449576115235],[-2.31272938355703,51.1630244365177],[-2.31008908661748,51.16842330337],[-2.29846468216909,51.1753224433337],[-2.29778410114708,51.1800351395672],[-2.2911349245425,51.1882263315958],[-2.28819908771954,51.1880780533194],[-2.28845815815341,51.1922331009267],[-2.28478196798957,51.1932449281648],[-2.28456029034064,51.1972534292489],[-2.28086696323,51.1978560423113],[-2.27984028560917,51.2017533428225],[-2.26666588045607,51.2155785665525],[-2.26975854518045,51.2188933172786],[-2.26078894421961,51.2391209559781],[-2.24534123488723,51.2538761361828],[-2.24958324766784,51.2589664647533],[-2.24442667002297,51.2631324064279],[-2.2451717146596,51.2725213515059],[-2.25349723752292,51.2898347400343],[-2.26528664579718,51.2928586708875],[-2.26298948756089,51.2951648870138],[-2.26547401276139,51.2962401559072],[-2.2806992130006,51.2935455839419],[-2.28149217794617,51.2986699869587],[-2.27682207558483,51.3039507529828],[-2.28512005576167,51.3095280429277],[-2.27681145409453,51.3104687703673],[-2.27195450640093,51.3142540530138],[-2.27551931229617,51.3186804946257],[-2.2723312776516,51.3184999903077],[-2.27493751796668,51.3250345839523],[-2.28909082429693,51.3252720476245],[-2.28843893324608,51.3297714366215],[-2.30011667405257,51.3322390286626],[-2.29955212038986,51.3361142153644],[-2.29433946367161,51.3376290924358],[-2.29690172837345,51.3387078936734],[-2.29501737168016,51.3401423979252],[-2.29794284572074,51.3431921414442],[-2.30850893780664,51.3397667051259],[-2.32383431578052,51.3477302890266],[-2.3443088497928,51.3454568368331],[-2.33742937721836,51.3514294507557],[-2.32313031912753,51.3566406872569],[-2.31021466517647,51.3575345967534],[-2.3107659752218,51.361324969138],[-2.30751872210451,51.3649968269988],[-2.29979808631897,51.3621376984378],[-2.29681493913794,51.3639076480179],[-2.29026067263951,51.3725956710009],[-2.29152157041299,51.3780192795726],[-2.29740823841531,51.3846545756547],[-2.29667741350415,51.3948930293451],[-2.28191115864131,51.3972104102944],[-2.29080374096335,51.4057164977673],[-2.28201931065643,51.4103134264496],[-2.2829492928186,51.4123385359252],[-2.27854748377854,51.4159104706364],[-2.28488500384064,51.4234873033745],[-2.29535024778849,51.4262523417697],[-2.28806857688916,51.4545813115611],[-2.28524589422795,51.45793844663],[-2.29574294629382,51.458590038425],[-2.29458088870396,51.4667853056232],[-2.28885097878328,51.4781497835667],[-2.29055781500036,51.4868576144909],[-2.3115304857608,51.487257996752],[-2.32427608910811,51.4975166005356],[-2.29739304717883,51.5062600480183],[-2.29640100530065,51.509757024026],[-2.28129402106405,51.5156300714988],[-2.26371915728532,51.5185590930405],[-2.25582265063991,51.5220733089034],[-2.25240978443968,51.5268896664633],[-2.25766763585652,51.5284616247383],[-2.26027793468644,51.5340186095792],[-2.26652266822564,51.5362679152795],[-2.26177784798879,51.5447392072156],[-2.26841140596192,51.5496955435553],[-2.26689360121371,51.5513881793481],[-2.2687492274442,51.5596856037209],[-2.26413231533938,51.5680192674739],[-2.26028641253826,51.5698801480534],[-2.27400093074794,51.5723449001617],[-2.26952585022541,51.581823413079],[-2.25114643460986,51.58342511991],[-2.2450978410726,51.5813830114117],[-2.24190435846893,51.5920918307863],[-2.22253217792825,51.5961836335006],[-2.20751597073015,51.603414145208],[-2.20667832394276,51.5959413381716],[-2.19246035304326,51.5958129078643],[-2.19002396047558,51.592475639192],[-2.18106244530722,51.5965078063854],[-2.18280883756856,51.5993876442672],[-2.17952710424549,51.600014164795],[-2.17465216735181,51.596144672145],[-2.15812415063997,51.5935006750119],[-2.15255295284545,51.5903259195134],[-2.1206625514571,51.620602921364],[-2.05717380115619,51.6724431312967],[-2.04078287838672,51.6618438862984],[-2.02459633421616,51.6542820408092],[-2.02115709129654,51.6550950168449],[-2.01510144317502,51.6503682385629],[-2.00310875372608,51.6490314233674],[-1.99531096059941,51.6513768284528],[-1.98483826883352,51.6431605886503],[-1.97646853234765,51.6432529593496],[-1.97719872120297,51.6379297414434],[-1.96864421271599,51.639951344159],[-1.95225949700391,51.636865263557],[-1.95067417019488,51.6370354468848],[-1.9629675452052,51.6586868807649],[-1.95794641933528,51.6596764341427],[-1.95222068296536,51.6678291850785],[-1.94205954029405,51.670416870644],[-1.92093625899621,51.6572314720265],[-1.90387523660194,51.6560195735897],[-1.88840448979702,51.6488650923476],[-1.87626722476572,51.6529808497276],[-1.88739153016735,51.660041278047],[-1.88786815824443,51.6652252949675],[-1.89676873025825,51.6727744163184],[-1.89901973881227,51.679689633965],[-1.89330024928573,51.6769009773333],[-1.87388423057635,51.6825898101339],[-1.8648947674084,51.6706238884703],[-1.86024088826591,51.6684201163818],[-1.86053806666396,51.6648594976247],[-1.85432947270738,51.6619252318084],[-1.85061102869137,51.6562857852906],[-1.84011032727779,51.6561335593267],[-1.81528462477523,51.6635440863429],[-1.81834553118651,51.6711779324741],[-1.82328624616454,51.6735430348114],[-1.82075816126772,51.6777629260769],[-1.81575459736141,51.6797470456817],[-1.81248134528336,51.6863091979302],[-1.81939844031575,51.6943341914686],[-1.81851428971195,51.7023354455325],[-1.81196949530617,51.7031220613336],[-1.80746573256356,51.6991244652549],[-1.81115199597698,51.6974794470314]]]}}]}